{"type": "FeatureCollection", "features": [ {"type": "Feature", "properties": {"norad_id": 44542, "name": "BEIDOU-3 M24 (C46)", "group": "beidou", "lat": -5.76497856731562, "lon": -175.14966318582188, "alt_km": 21506.46497346421, "timestamp": "2025-12-13T10:41:26.031323+00:00", "meta": {"OBJECT_NAME": "BEIDOU-3 M24 (C46)", "OBJECT_ID": "2019-061A", "EPOCH": "2025-12-11T20:16:59.930112", "MEAN_MOTION": 1.86229199, "ECCENTRICITY": 0.00095416, "INCLINATION": 54.4002, "RA_OF_ASC_NODE": 189.0463, "ARG_OF_PERICENTER": 24.13, "MEAN_ANOMALY": 335.9744, "EPHEMERIS_TYPE": 0, "CLASSIFICATION_TYPE": "U", "NORAD_CAT_ID": 44542, "ELEMENT_SET_NO": 999, "REV_AT_EPOCH": 4230, "BSTAR": 0, "MEAN_MOTION_DOT": 7.3e-07, "MEAN_MOTION_DDOT": 0}, "tle": {"line1": "1 44542U 19061A   25345.84513808  .00000073  00000+0  00000+0 0  9990", "line2": "2 44542  54.4002 189.0463 0009541  24.1300 335.9744  1.86229199 42307"}}, "geometry": {"type": "Point", "coordinates": [-175.14966318582188, -5.76497856731562]}}, {"type": "Feature", "properties": {"norad_id": 44543, "name": "BEIDOU-3 M23 (C45)", "group": "beidou", "lat": -54.15167683131995, "lon": 91.58208855043189, "alt_km": 21542.18902752134, "timestamp": "2025-12-13T10:41:26.031335+00:00", "meta": {"OBJECT_NAME": "BEIDOU-3 M23 (C45)", "OBJECT_ID": "2019-061B", "EPOCH": "2025-12-12T05:53:39.748416", "MEAN_MOTION": 1.86227487, "ECCENTRICITY": 0.00061471, "INCLINATION": 54.3988, "RA_OF_ASC_NODE": 189.0008, "ARG_OF_PERICENTER": 23.325, "MEAN_ANOMALY": 158.0349, "EPHEMERIS_TYPE": 0, "CLASSIFICATION_TYPE": "U", "NORAD_CAT_ID": 44543, "ELEMENT_SET_NO": 999, "REV_AT_EPOCH": 4231, "BSTAR": 0, "MEAN_MOTION_DOT": 7.9e-07, "MEAN_MOTION_DDOT": 0}, "tle": {"line1": "1 44543U 19061B   25346.24559894  .00000079  00000+0  00000+0 0  9997", "line2": "2 44543  54.3988 189.0008 0006147  23.3250 158.0349  1.86227487 42313"}}, "geometry": {"type": "Point", "coordinates": [91.58208855043189, -54.15167683131995]}}, {"type": "Feature", "properties": {"norad_id": 44709, "name": "BEIDOU-3 IGSO-3 (C40)", "group": "beidou", "lat": 51.549135711410784, "lon": -15.864023587127837, "alt_km": 35879.34520694436, "timestamp": "2025-12-13T10:41:26.031347+00:00", "meta": {"OBJECT_NAME": "BEIDOU-3 IGSO-3 (C40)", "OBJECT_ID": "2019-073A", "EPOCH": "2025-11-20T07:11:22.740000", "MEAN_MOTION": 1.00250097, "ECCENTRICITY": 0.0044538, "INCLINATION": 55.163, "RA_OF_ASC_NODE": 283.159, "ARG_OF_PERICENTER": 191.5856, "MEAN_ANOMALY": 168.2409, "EPHEMERIS_TYPE": 0, "CLASSIFICATION_TYPE": "U", "NORAD_CAT_ID": 44709, "ELEMENT_SET_NO": 999, "REV_AT_EPOCH": 2236, "BSTAR": 0, "MEAN_MOTION_DOT": -2.06e-06, "MEAN_MOTION_DDOT": 0}, "tle": {"line1": "1 44709U 19073A   25324.29956875 -.00000206  00000+0  00000+0 0  9998", "line2": "2 44709  55.1630 283.1590 0044538 191.5856 168.2409  1.00250097 22360"}}, "geometry": {"type": "Point", "coordinates": [-15.864023587127837, 51.549135711410784]}}, {"type": "Feature", "properties": {"norad_id": 44793, "name": "BEIDOU-3 M22 (C44)", "group": "beidou", "lat": 52.85829910164633, "lon": 53.51939279416366, "alt_km": 21518.18467968551, "timestamp": "2025-12-13T10:41:26.031362+00:00", "meta": {"OBJECT_NAME": "BEIDOU-3 M22 (C44)", "OBJECT_ID": "2019-078A", "EPOCH": "2025-12-12T05:19:54.790752", "MEAN_MOTION": 1.86231761, "ECCENTRICITY": 0.00056767, "INCLINATION": 54.1087, "RA_OF_ASC_NODE": 306.4039, "ARG_OF_PERICENTER": 23.3376, "MEAN_ANOMALY": 336.6791, "EPHEMERIS_TYPE": 0, "CLASSIFICATION_TYPE": "U", "NORAD_CAT_ID": 44793, "ELEMENT_SET_NO": 999, "REV_AT_EPOCH": 4116, "BSTAR": 0, "MEAN_MOTION_DOT": -9.3e-07, "MEAN_MOTION_DDOT": 0}, "tle": {"line1": "1 44793U 19078A   25346.22216193 -.00000093  00000+0  00000+0 0  9999", "line2": "2 44793  54.1087 306.4039 0005676  23.3376 336.6791  1.86231761 41169"}}, "geometry": {"type": "Point", "coordinates": [53.51939279416366, 52.85829910164633]}}, {"type": "Feature", "properties": {"norad_id": 44794, "name": "BEIDOU-3 M21 (C43)", "group": "beidou", "lat": 6.346576545388516, "lon": -49.071336909485034, "alt_km": 21517.01082863822, "timestamp": "2025-12-13T10:41:26.031373+00:00", "meta": {"OBJECT_NAME": "BEIDOU-3 M21 (C43)", "OBJECT_ID": "2019-078B", "EPOCH": "2025-12-12T21:31:22.420992", "MEAN_MOTION": 1.86227428, "ECCENTRICITY": 0.00038849, "INCLINATION": 54.0814, "RA_OF_ASC_NODE": 306.3454, "ARG_OF_PERICENTER": 10.3666, "MEAN_ANOMALY": 349.6317, "EPHEMERIS_TYPE": 0, "CLASSIFICATION_TYPE": "U", "NORAD_CAT_ID": 44794, "ELEMENT_SET_NO": 999, "REV_AT_EPOCH": 4118, "BSTAR": 0, "MEAN_MOTION_DOT": -9.6e-07, "MEAN_MOTION_DDOT": 0}, "tle": {"line1": "1 44794U 19078B   25346.89678728 -.00000096  00000+0  00000+0 0  9992", "line2": "2 44794  54.0814 306.3454 0003884  10.3666 349.6317  1.86227428 41189"}}, "geometry": {"type": "Point", "coordinates": [-49.071336909485034, 6.346576545388516]}}, {"type": "Feature", "properties": {"norad_id": 44864, "name": "BEIDOU-3 M19 (C41)", "group": "beidou", "lat": -19.345610853089486, "lon": -97.57346526661803, "alt_km": 21523.543520834854, "timestamp": "2025-12-13T10:41:26.031384+00:00", "meta": {"OBJECT_NAME": "BEIDOU-3 M19 (C41)", "OBJECT_ID": "2019-090A", "EPOCH": "2025-12-10T23:47:39.658272", "MEAN_MOTION": 1.86231263, "ECCENTRICITY": 0.0017877, "INCLINATION": 56.392, "RA_OF_ASC_NODE": 69.0187, "ARG_OF_PERICENTER": 285.2046, "MEAN_ANOMALY": 73.1126, "EPHEMERIS_TYPE": 0, "CLASSIFICATION_TYPE": "U", "NORAD_CAT_ID": 44864, "ELEMENT_SET_NO": 999, "REV_AT_EPOCH": 4072, "BSTAR": 0, "MEAN_MOTION_DOT": -6e-07, "MEAN_MOTION_DDOT": 0}, "tle": {"line1": "1 44864U 19090A   25344.99143123 -.00000060  00000+0  00000+0 0  9990", "line2": "2 44864  56.3920  69.0187 0017877 285.2046  73.1126  1.86231263 40726"}}, "geometry": {"type": "Point", "coordinates": [-97.57346526661803, -19.345610853089486]}}, {"type": "Feature", "properties": {"norad_id": 44865, "name": "BEIDOU-3 M20 (C42)", "group": "beidou", "lat": -49.96830865707049, "lon": 16.749559643235244, "alt_km": 21492.2334359066, "timestamp": "2025-12-13T10:41:26.031395+00:00", "meta": {"OBJECT_NAME": "BEIDOU-3 M20 (C42)", "OBJECT_ID": "2019-090B", "EPOCH": "2025-12-10T20:36:05.507712", "MEAN_MOTION": 1.86231317, "ECCENTRICITY": 0.0014897, "INCLINATION": 56.3937, "RA_OF_ASC_NODE": 69.0576, "ARG_OF_PERICENTER": 298.003, "MEAN_ANOMALY": 60.7372, "EPHEMERIS_TYPE": 0, "CLASSIFICATION_TYPE": "U", "NORAD_CAT_ID": 44865, "ELEMENT_SET_NO": 999, "REV_AT_EPOCH": 4070, "BSTAR": 0, "MEAN_MOTION_DOT": -5.8e-07, "MEAN_MOTION_DDOT": 0}, "tle": {"line1": "1 44865U 19090B   25344.85839708 -.00000058  00000+0  00000+0 0  9994", "line2": "2 44865  56.3937  69.0576 0014897 298.0030  60.7372  1.86231317 40704"}}, "geometry": {"type": "Point", "coordinates": [16.749559643235244, -49.96830865707049]}}, {"type": "Feature", "properties": {"norad_id": 45344, "name": "BEIDOU-3 G2 (C60)", "group": "beidou", "lat": -2.4730087745150824, "lon": -37.21794389590981, "alt_km": 35767.73001504108, "timestamp": "2025-12-13T10:41:26.031407+00:00", "meta": {"OBJECT_NAME": "BEIDOU-3 G2 (C60)", "OBJECT_ID": "2020-017A", "EPOCH": "2025-12-13T00:07:48.326880", "MEAN_MOTION": 1.00272992, "ECCENTRICITY": 0.00044507, "INCLINATION": 2.4979, "RA_OF_ASC_NODE": 43.859, "ARG_OF_PERICENTER": 267.4975, "MEAN_ANOMALY": 212.5692, "EPHEMERIS_TYPE": 0, "CLASSIFICATION_TYPE": "U", "NORAD_CAT_ID": 45344, "ELEMENT_SET_NO": 999, "REV_AT_EPOCH": 2139, "BSTAR": 0, "MEAN_MOTION_DOT": -1.29e-06, "MEAN_MOTION_DDOT": 0}, "tle": {"line1": "1 45344U 20017A   25347.00542045 -.00000129  00000+0  00000+0 0  9992", "line2": "2 45344   2.4979  43.8590 0004450 267.4975 212.5692  1.00272992 21399"}}, "geometry": {"type": "Point", "coordinates": [-37.21794389590981, -2.4730087745150824]}}, {"type": "Feature", "properties": {"norad_id": 45807, "name": "BEIDOU-3 G3 (C61)", "group": "beidou", "lat": -1.902973947591706, "lon": -6.722454296426306, "alt_km": 35762.043045230006, "timestamp": "2025-12-13T10:41:26.031418+00:00", "meta": {"OBJECT_NAME": "BEIDOU-3 G3 (C61)", "OBJECT_ID": "2020-040A", "EPOCH": "2025-12-08T17:33:17.532288", "MEAN_MOTION": 1.00275813, "ECCENTRICITY": 0.00060306, "INCLINATION": 1.9816, "RA_OF_ASC_NODE": 66.5886, "ARG_OF_PERICENTER": 306.262, "MEAN_ANOMALY": 78.7159, "EPHEMERIS_TYPE": 0, "CLASSIFICATION_TYPE": "U", "NORAD_CAT_ID": 45807, "ELEMENT_SET_NO": 999, "REV_AT_EPOCH": 2016, "BSTAR": 0, "MEAN_MOTION_DOT": -3.52e-06, "MEAN_MOTION_DDOT": 0}, "tle": {"line1": "1 45807U 20040A   25342.73145292 -.00000352  00000+0  00000+0 0  9998", "line2": "2 45807   1.9816  66.5886 0006030 306.2620  78.7159  1.00275813 20161"}}, "geometry": {"type": "Point", "coordinates": [-6.722454296426306, -1.902973947591706]}}, {"type": "Feature", "properties": {"norad_id": 56564, "name": "BEIDOU-3 G4 (C62)", "group": "beidou", "lat": 0.8169865436976749, "lon": 42.76757803156618, "alt_km": 35794.01362320211, "timestamp": "2025-12-13T10:41:26.031431+00:00", "meta": {"OBJECT_NAME": "BEIDOU-3 G4 (C62)", "OBJECT_ID": "2023-066A", "EPOCH": "2025-12-12T22:48:10.954656", "MEAN_MOTION": 1.00271634, "ECCENTRICITY": 0.00028815, "INCLINATION": 0.8139, "RA_OF_ASC_NODE": 302.0742, "ARG_OF_PERICENTER": 231.9368, "MEAN_ANOMALY": 49.9888, "EPHEMERIS_TYPE": 0, "CLASSIFICATION_TYPE": "U", "NORAD_CAT_ID": 56564, "ELEMENT_SET_NO": 999, "REV_AT_EPOCH": 952, "BSTAR": 0, "MEAN_MOTION_DOT": -9.8e-07, "MEAN_MOTION_DDOT": 0}, "tle": {"line1": "1 56564U 23066A   25346.95012679 -.00000098  00000+0  00000+0 0  9998", "line2": "2 56564   0.8139 302.0742 0002881 231.9368  49.9888  1.00271634  9524"}}, "geometry": {"type": "Point", "coordinates": [42.76757803156618, 0.8169865436976749]}}]}